[{"OBJECT_NAME":"IRIDIUM 109","OBJECT_ID":"2017-003C","EPOCH":"2026-03-09T16:03:22.246272","MEAN_MOTION":14.34217553,"ECCENTRICITY":0.00020925,"INCLINATION":86.3982,"RA_OF_ASC_NODE":130.128,"ARG_OF_PERICENTER":95.091,"MEAN_ANOMALY":265.0525,"EPHEMERIS_TYPE":0,"CLASSIFICATION_TYPE":"U","NORAD_CAT_ID":41919,"ELEMENT_SET_NO":999,"REV_AT_EPOCH":47893,"BSTAR":-6.19911e-6,"MEAN_MOTION_DOT":2.0e-8,"MEAN_MOTION_DDOT":0},{"OBJECT_NAME":"NOAA 16 DEB","OBJECT_ID":"2000-055NU","EPOCH":"2026-03-09T12:51:43.626240","MEAN_MOTION":14.37009448,"ECCENTRICITY":0.00170591,"INCLINATION":98.7164,"RA_OF_ASC_NODE":171.385,"ARG_OF_PERICENTER":78.2261,"MEAN_ANOMALY":282.0837,"EPHEMERIS_TYPE":0,"CLASSIFICATION_TYPE":"U","NORAD_CAT_ID":41655,"ELEMENT_SET_NO":999,"REV_AT_EPOCH":51303,"BSTAR":0.0020398488,"MEAN_MOTION_DOT":6.017e-5,"MEAN_MOTION_DDOT":0}]
